CCSDS_OMM_VERS = 2.0
CREATION_DATE  = 
ORIGINATOR     = 

OBJECT_NAME    = DELTA 2 R/B(1)
OBJECT_ID      = 1990-008B
CENTER_NAME    = EARTH
REF_FRAME      = TEME
TIME_SYSTEM    = UTC
MEAN_ELEMENT_THEORY = SGP/SGP4

EPOCH          = 2026-02-05T07:25:58.718496
MEAN_MOTION    = 15.51488253
ECCENTRICITY   = .00962338
INCLINATION    = 35.6065
RA_OF_ASC_NODE = 26.6230
ARG_OF_PERICENTER = 316.9901
MEAN_ANOMALY   = 42.3342

EPHEMERIS_TYPE = 0
CLASSIFICATION_TYPE = U
NORAD_CAT_ID   = 20453
ELEMENT_SET_NO = 999
REV_AT_EPOCH   = 92109
BSTAR          = .11788437E-2
MEAN_MOTION_DOT = .88442E-3
MEAN_MOTION_DDOT = 0

CCSDS_OMM_VERS = 2.0
CREATION_DATE  = 
ORIGINATOR     = 

OBJECT_NAME    = COSMOS 2058
OBJECT_ID      = 1990-010A
CENTER_NAME    = EARTH
REF_FRAME      = TEME
TIME_SYSTEM    = UTC
MEAN_ELEMENT_THEORY = SGP/SGP4

EPOCH          = 2026-02-05T01:40:40.373472
MEAN_MOTION    = 15.11018598
ECCENTRICITY   = .00121148
INCLINATION    = 82.4631
RA_OF_ASC_NODE = 79.5628
ARG_OF_PERICENTER = 87.9203
MEAN_ANOMALY   = 272.3414

EPHEMERIS_TYPE = 0
CLASSIFICATION_TYPE = U
NORAD_CAT_ID   = 20465
ELEMENT_SET_NO = 999
REV_AT_EPOCH   = 93731
BSTAR          = .29901264E-3
MEAN_MOTION_DOT = .5031E-4
MEAN_MOTION_DDOT = 0

CCSDS_OMM_VERS = 2.0
CREATION_DATE  = 
ORIGINATOR     = 

OBJECT_NAME    = SL-14 R/B
OBJECT_ID      = 1990-010B
CENTER_NAME    = EARTH
REF_FRAME      = TEME
TIME_SYSTEM    = UTC
MEAN_ELEMENT_THEORY = SGP/SGP4

EPOCH          = 2026-02-05T04:15:23.834016
MEAN_MOTION    = 14.83539886
ECCENTRICITY   = .00210506
INCLINATION    = 82.5034
RA_OF_ASC_NODE = 297.9283
ARG_OF_PERICENTER = 49.8961
MEAN_ANOMALY   = 310.4095

EPHEMERIS_TYPE = 0
CLASSIFICATION_TYPE = U
NORAD_CAT_ID   = 20466
ELEMENT_SET_NO = 999
REV_AT_EPOCH   = 92366
BSTAR          = .77786975E-4
MEAN_MOTION_DOT = .666E-5
MEAN_MOTION_DDOT = 0

CCSDS_OMM_VERS = 2.0
CREATION_DATE  = 
ORIGINATOR     = 

OBJECT_NAME    = SL-14 R/B
OBJECT_ID      = 1990-018B
CENTER_NAME    = EARTH
REF_FRAME      = TEME
TIME_SYSTEM    = UTC
MEAN_ELEMENT_THEORY = SGP/SGP4

EPOCH          = 2026-02-05T07:10:17.492448
MEAN_MOTION    = 14.82111376
ECCENTRICITY   = .00159265
INCLINATION    = 82.5185
RA_OF_ASC_NODE = 253.3721
ARG_OF_PERICENTER = 193.8341
MEAN_ANOMALY   = 166.2439

EPHEMERIS_TYPE = 0
CLASSIFICATION_TYPE = U
NORAD_CAT_ID   = 20511
ELEMENT_SET_NO = 999
REV_AT_EPOCH   = 91778
BSTAR          = .63722153E-4
MEAN_MOTION_DOT = .531E-5
MEAN_MOTION_DDOT = 0

CCSDS_OMM_VERS = 2.0
CREATION_DATE  = 
ORIGINATOR     = 

OBJECT_NAME    = HST
OBJECT_ID      = 1990-037B
CENTER_NAME    = EARTH
REF_FRAME      = TEME
TIME_SYSTEM    = UTC
MEAN_ELEMENT_THEORY = SGP/SGP4

EPOCH          = 2026-02-05T07:29:20.778720
MEAN_MOTION    = 15.28961568
ECCENTRICITY   = .00019321
INCLINATION    = 28.4665
RA_OF_ASC_NODE = 260.7880
ARG_OF_PERICENTER = 109.1408
MEAN_ANOMALY   = 250.9397

EPHEMERIS_TYPE = 0
CLASSIFICATION_TYPE = U
NORAD_CAT_ID   = 20580
ELEMENT_SET_NO = 999
REV_AT_EPOCH   = 76835
BSTAR          = .32358792E-3
MEAN_MOTION_DOT = .9602E-4
MEAN_MOTION_DDOT = 0

CCSDS_OMM_VERS = 2.0
CREATION_DATE  = 
ORIGINATOR     = 

OBJECT_NAME    = SL-16 R/B
OBJECT_ID      = 1990-046B
CENTER_NAME    = EARTH
REF_FRAME      = TEME
TIME_SYSTEM    = UTC
MEAN_ELEMENT_THEORY = SGP/SGP4

EPOCH          = 2026-02-05T00:54:05.769792
MEAN_MOTION    = 14.15005006
ECCENTRICITY   = .00145261
INCLINATION    = 70.9997
RA_OF_ASC_NODE = 6.4858
ARG_OF_PERICENTER = 344.9422
MEAN_ANOMALY   = 15.1266

EPHEMERIS_TYPE = 0
CLASSIFICATION_TYPE = U
NORAD_CAT_ID   = 20625
ELEMENT_SET_NO = 999
REV_AT_EPOCH   = 84377
BSTAR          = .23683291E-4
MEAN_MOTION_DOT = -.2E-7
MEAN_MOTION_DDOT = 0

CCSDS_OMM_VERS = 2.0
CREATION_DATE  = 
ORIGINATOR     = 

OBJECT_NAME    = COSMOS 2084
OBJECT_ID      = 1990-055A
CENTER_NAME    = EARTH
REF_FRAME      = TEME
TIME_SYSTEM    = UTC
MEAN_ELEMENT_THEORY = SGP/SGP4

EPOCH          = 2026-02-05T02:38:29.712768
MEAN_MOTION    = 15.05438714
ECCENTRICITY   = .00222576
INCLINATION    = 62.7897
RA_OF_ASC_NODE = 86.6785
ARG_OF_PERICENTER = 183.2330
MEAN_ANOMALY   = 176.8631

EPHEMERIS_TYPE = 0
CLASSIFICATION_TYPE = U
NORAD_CAT_ID   = 20663
ELEMENT_SET_NO = 999
REV_AT_EPOCH   = 93141
BSTAR          = .25456372E-3
MEAN_MOTION_DOT = .349E-4
MEAN_MOTION_DDOT = 0

CCSDS_OMM_VERS = 2.0
CREATION_DATE  = 
ORIGINATOR     = 

OBJECT_NAME    = SL-6 R/B(2)
OBJECT_ID      = 1990-055D
CENTER_NAME    = EARTH
REF_FRAME      = TEME
TIME_SYSTEM    = UTC
MEAN_ELEMENT_THEORY = SGP/SGP4

EPOCH          = 2026-02-05T07:33:13.392576
MEAN_MOTION    = 15.03418145
ECCENTRICITY   = .00199506
INCLINATION    = 62.7851
RA_OF_ASC_NODE = 3.9306
ARG_OF_PERICENTER = 337.5810
MEAN_ANOMALY   = 22.4416

EPHEMERIS_TYPE = 0
CLASSIFICATION_TYPE = U
NORAD_CAT_ID   = 20666
ELEMENT_SET_NO = 999
REV_AT_EPOCH   = 93332
BSTAR          = .31756106E-3
MEAN_MOTION_DOT = .4162E-4
MEAN_MOTION_DDOT = 0

CCSDS_OMM_VERS = 2.0
CREATION_DATE  = 
ORIGINATOR     = 

OBJECT_NAME    = SL-8 R/B
OBJECT_ID      = 1990-078B
CENTER_NAME    = EARTH
REF_FRAME      = TEME
TIME_SYSTEM    = UTC
MEAN_ELEMENT_THEORY = SGP/SGP4

EPOCH          = 2026-02-05T02:33:55.387584
MEAN_MOTION    = 14.87975298
ECCENTRICITY   = .03673367
INCLINATION    = 82.9026
RA_OF_ASC_NODE = 280.5873
ARG_OF_PERICENTER = 123.1606
MEAN_ANOMALY   = 240.5423

EPHEMERIS_TYPE = 0
CLASSIFICATION_TYPE = U
NORAD_CAT_ID   = 20775
ELEMENT_SET_NO = 999
REV_AT_EPOCH   = 80445
BSTAR          = .55696517E-3
MEAN_MOTION_DOT = .18839E-3
MEAN_MOTION_DDOT = 0

CCSDS_OMM_VERS = 2.0
CREATION_DATE  = 
ORIGINATOR     = 

OBJECT_NAME    = SL-8 R/B
OBJECT_ID      = 1991-006B
CENTER_NAME    = EARTH
REF_FRAME      = TEME
TIME_SYSTEM    = UTC
MEAN_ELEMENT_THEORY = SGP/SGP4

EPOCH          = 2026-02-05T04:16:46.994016
MEAN_MOTION    = 13.77491890
ECCENTRICITY   = .00234805
INCLINATION    = 82.9428
RA_OF_ASC_NODE = 194.2178
ARG_OF_PERICENTER = 124.8243
MEAN_ANOMALY   = 48.2786

EPHEMERIS_TYPE = 0
CLASSIFICATION_TYPE = U
NORAD_CAT_ID   = 21088
ELEMENT_SET_NO = 999
REV_AT_EPOCH   = 75959
BSTAR          = -.7493188E-5
MEAN_MOTION_DOT = .8E-7
MEAN_MOTION_DDOT = 0

CCSDS_OMM_VERS = 2.0
CREATION_DATE  = 
ORIGINATOR     = 

OBJECT_NAME    = OKEAN-3
OBJECT_ID      = 1991-039A
CENTER_NAME    = EARTH
REF_FRAME      = TEME
TIME_SYSTEM    = UTC
MEAN_ELEMENT_THEORY = SGP/SGP4

EPOCH          = 2026-02-05T03:50:12.278112
MEAN_MOTION    = 15.04543532
ECCENTRICITY   = .00163741
INCLINATION    = 82.5182
RA_OF_ASC_NODE = 8.3477
ARG_OF_PERICENTER = 83.0632
MEAN_ANOMALY   = 277.2456

EPHEMERIS_TYPE = 0
CLASSIFICATION_TYPE = U
NORAD_CAT_ID   = 21397
ELEMENT_SET_NO = 999
REV_AT_EPOCH   = 86014
BSTAR          = .31772173E-3
MEAN_MOTION_DOT = .4492E-4
MEAN_MOTION_DDOT = 0

CCSDS_OMM_VERS = 2.0
CREATION_DATE  = 
ORIGINATOR     = 

OBJECT_NAME    = COSMOS 2151
OBJECT_ID      = 1991-042A
CENTER_NAME    = EARTH
REF_FRAME      = TEME
TIME_SYSTEM    = UTC
MEAN_ELEMENT_THEORY = SGP/SGP4

EPOCH          = 2026-02-05T06:20:00.066624
MEAN_MOTION    = 14.99978246
ECCENTRICITY   = .00130493
INCLINATION    = 82.4967
RA_OF_ASC_NODE = 114.9539
ARG_OF_PERICENTER = 162.6791
MEAN_ANOMALY   = 197.4881

EPHEMERIS_TYPE = 0
CLASSIFICATION_TYPE = U
NORAD_CAT_ID   = 21422
ELEMENT_SET_NO = 999
REV_AT_EPOCH   = 85833
BSTAR          = .2103446E-3
MEAN_MOTION_DOT = .2644E-4
MEAN_MOTION_DDOT = 0

