DELTA 2 R/B(1)          
1 20453U 90008B   26036.30970739  .00088442  00000+0  11788-2 0  9998
2 20453  35.6065  26.6230 0096233 316.9901  42.3342 15.51488253921093
COSMOS 2058             
1 20465U 90010A   26036.06991173  .00005031  00000+0  29901-3 0  9992
2 20465  82.4631  79.5628 0012114  87.9203 272.3414 15.11018598937313
SL-14 R/B               
1 20466U 90010B   26036.17735919  .00000666  00000+0  77787-4 0  9994
2 20466  82.5034 297.9283 0021050  49.8961 310.4095 14.83539886923660
SL-14 R/B               
1 20511U 90018B   26036.29881357  .00000531  00000+0  63722-4 0  9999
2 20511  82.5185 253.3721 0015926 193.8341 166.2439 14.82111376917782
HST                     
1 20580U 90037B   26036.31204605  .00009602  00000+0  32359-3 0  9993
2 20580  28.4665 260.7880 0001932 109.1408 250.9397 15.28961568768352
SL-16 R/B               
1 20625U 90046B   26036.03756678 -.00000002  00000+0  23683-4 0  9991
2 20625  70.9997   6.4858 0014526 344.9422  15.1266 14.15005006843777
COSMOS 2084             
1 20663U 90055A   26036.11006612  .00003490  00000+0  25456-3 0  9990
2 20663  62.7897  86.6785 0022257 183.2330 176.8631 15.05438714931414
SL-6 R/B(2)             
1 20666U 90055D   26036.31473834  .00004162  00000+0  31756-3 0  9996
2 20666  62.7851   3.9306 0019950 337.5810  22.4416 15.03418145933324
SL-8 R/B                
1 20775U 90078B   26036.10689106  .00018839  00000+0  55697-3 0  9996
2 20775  82.9026 280.5873 0367336 123.1606 240.5423 14.87975298804451
SL-8 R/B                
1 21088U 91006B   26036.17832169  .00000008  00000+0 -74932-5 0  9997
2 21088  82.9428 194.2178 0023480 124.8243  48.2786 13.77491890759596
OKEAN-3                 
1 21397U 91039A   26036.15986433  .00004492  00000+0  31772-3 0  9991
2 21397  82.5182   8.3477 0016374  83.0632 277.2456 15.04543532860146
COSMOS 2151             
1 21422U 91042A   26036.26388966  .00002644  00000+0  21034-3 0  9990
2 21422  82.4967 114.9539 0013049 162.6791 197.4881 14.99978246858334
